IRIDIUM 119             
1 42959U 17061E   25322.91415246  .00000323  00000+0  10837-3 0  9999
2 42959  86.3949 113.1750 0001954  83.8416 276.3003 14.34216911424673
IRIDIUM 107             
1 42960U 17061F   25322.93317935  .00000224  00000+0  72929-4 0  9990
2 42960  86.3947 113.1870 0001535  88.9947 271.1425 14.34218590424683
IRIDIUM 132             
1 42961U 17061G   25322.93952168  .00000238  00000+0  77804-4 0  9996
2 42961  86.3948 113.1653 0001903  92.3193 267.8221 14.34217782424683
IRIDIUM 136             
1 42962U 17061H   25322.83169830  .00000308  00000+0  10303-3 0  9990
2 42962  86.3947 113.2159 0001937  88.6436 271.4982 14.34216857424687
IRIDIUM 139             
1 42963U 17061J   25322.90781219  .00000377  00000+0  12771-3 0  9997
2 42963  86.3948 113.2427 0001808  92.9088 267.2315 14.34215889424705
IRIDIUM 125             
1 42964U 17061K   25322.89512726  .00000333  00000+0  11202-3 0  9991
2 42964  86.3949 113.3053 0001655  77.6623 282.4758 14.34215649424713
IRIDIUM 135             
1 43070U 17083A   25322.65995205  .00000405  00000+0  13743-3 0  9997
2 43070  86.3986  50.0083 0002165  96.1219 264.0223 14.34214198413974
IRIDIUM 138             
1 43071U 17083B   25322.68532203  .00000445  00000+0  15195-3 0  9993
2 43071  86.4000  49.6608 0002159  84.3725 275.7717 14.34214362413963
