<?xml version="1.0" encoding="UTF-8"?>
<ndm xmlns:xsi="http://www.w3.org/2001/XMLSchema-instance" xsi:noNamespaceSchemaLocation="https://sanaregistry.org/r/ndmxml_unqualified/ndmxml-2.0.0-master-2.0.xsd">
<omm id="CCSDS_OMM_VERS" version="2.0">
<header><CREATION_DATE/><ORIGINATOR/></header><body><segment><metadata><OBJECT_NAME>IRIDIUM 119</OBJECT_NAME><OBJECT_ID>2017-061E</OBJECT_ID><CENTER_NAME>EARTH</CENTER_NAME><REF_FRAME>TEME</REF_FRAME><TIME_SYSTEM>UTC</TIME_SYSTEM><MEAN_ELEMENT_THEORY>SGP4</MEAN_ELEMENT_THEORY></metadata><data><meanElements><EPOCH>2025-11-18T21:56:22.772544</EPOCH><MEAN_MOTION>14.34216911</MEAN_MOTION><ECCENTRICITY>.00019549</ECCENTRICITY><INCLINATION>86.3949</INCLINATION><RA_OF_ASC_NODE>113.1750</RA_OF_ASC_NODE><ARG_OF_PERICENTER>83.8416</ARG_OF_PERICENTER><MEAN_ANOMALY>276.3003</MEAN_ANOMALY></meanElements><tleParameters><EPHEMERIS_TYPE>0</EPHEMERIS_TYPE><CLASSIFICATION_TYPE>U</CLASSIFICATION_TYPE><NORAD_CAT_ID>42959</NORAD_CAT_ID><ELEMENT_SET_NO>999</ELEMENT_SET_NO><REV_AT_EPOCH>42467</REV_AT_EPOCH><BSTAR>.10836814E-3</BSTAR><MEAN_MOTION_DOT>.323E-5</MEAN_MOTION_DOT><MEAN_MOTION_DDOT>0</MEAN_MOTION_DDOT></tleParameters></data></segment></body></omm>
<omm id="CCSDS_OMM_VERS" version="2.0">
<header><CREATION_DATE/><ORIGINATOR/></header><body><segment><metadata><OBJECT_NAME>IRIDIUM 107</OBJECT_NAME><OBJECT_ID>2017-061F</OBJECT_ID><CENTER_NAME>EARTH</CENTER_NAME><REF_FRAME>TEME</REF_FRAME><TIME_SYSTEM>UTC</TIME_SYSTEM><MEAN_ELEMENT_THEORY>SGP4</MEAN_ELEMENT_THEORY></metadata><data><meanElements><EPOCH>2025-11-18T22:23:46.695840</EPOCH><MEAN_MOTION>14.34218590</MEAN_MOTION><ECCENTRICITY>.00015355</ECCENTRICITY><INCLINATION>86.3947</INCLINATION><RA_OF_ASC_NODE>113.1870</RA_OF_ASC_NODE><ARG_OF_PERICENTER>88.9947</ARG_OF_PERICENTER><MEAN_ANOMALY>271.1425</MEAN_ANOMALY></meanElements><tleParameters><EPHEMERIS_TYPE>0</EPHEMERIS_TYPE><CLASSIFICATION_TYPE>U</CLASSIFICATION_TYPE><NORAD_CAT_ID>42960</NORAD_CAT_ID><ELEMENT_SET_NO>999</ELEMENT_SET_NO><REV_AT_EPOCH>42468</REV_AT_EPOCH><BSTAR>.72928517E-4</BSTAR><MEAN_MOTION_DOT>.224E-5</MEAN_MOTION_DOT><MEAN_MOTION_DDOT>0</MEAN_MOTION_DDOT></tleParameters></data></segment></body></omm>
<omm id="CCSDS_OMM_VERS" version="2.0">
<header><CREATION_DATE/><ORIGINATOR/></header><body><segment><metadata><OBJECT_NAME>IRIDIUM 132</OBJECT_NAME><OBJECT_ID>2017-061G</OBJECT_ID><CENTER_NAME>EARTH</CENTER_NAME><REF_FRAME>TEME</REF_FRAME><TIME_SYSTEM>UTC</TIME_SYSTEM><MEAN_ELEMENT_THEORY>SGP4</MEAN_ELEMENT_THEORY></metadata><data><meanElements><EPOCH>2025-11-18T22:32:54.673152</EPOCH><MEAN_MOTION>14.34217782</MEAN_MOTION><ECCENTRICITY>.00019038</ECCENTRICITY><INCLINATION>86.3948</INCLINATION><RA_OF_ASC_NODE>113.1653</RA_OF_ASC_NODE><ARG_OF_PERICENTER>92.3193</ARG_OF_PERICENTER><MEAN_ANOMALY>267.8221</MEAN_ANOMALY></meanElements><tleParameters><EPHEMERIS_TYPE>0</EPHEMERIS_TYPE><CLASSIFICATION_TYPE>U</CLASSIFICATION_TYPE><NORAD_CAT_ID>42961</NORAD_CAT_ID><ELEMENT_SET_NO>999</ELEMENT_SET_NO><REV_AT_EPOCH>42468</REV_AT_EPOCH><BSTAR>.77804461E-4</BSTAR><MEAN_MOTION_DOT>.238E-5</MEAN_MOTION_DOT><MEAN_MOTION_DDOT>0</MEAN_MOTION_DDOT></tleParameters></data></segment></body></omm>
<omm id="CCSDS_OMM_VERS" version="2.0">
<header><CREATION_DATE/><ORIGINATOR/></header><body><segment><metadata><OBJECT_NAME>IRIDIUM 136</OBJECT_NAME><OBJECT_ID>2017-061H</OBJECT_ID><CENTER_NAME>EARTH</CENTER_NAME><REF_FRAME>TEME</REF_FRAME><TIME_SYSTEM>UTC</TIME_SYSTEM><MEAN_ELEMENT_THEORY>SGP4</MEAN_ELEMENT_THEORY></metadata><data><meanElements><EPOCH>2025-11-18T19:57:38.733120</EPOCH><MEAN_MOTION>14.34216857</MEAN_MOTION><ECCENTRICITY>.00019373</ECCENTRICITY><INCLINATION>86.3947</INCLINATION><RA_OF_ASC_NODE>113.2159</RA_OF_ASC_NODE><ARG_OF_PERICENTER>88.6436</ARG_OF_PERICENTER><MEAN_ANOMALY>271.4982</MEAN_ANOMALY></meanElements><tleParameters><EPHEMERIS_TYPE>0</EPHEMERIS_TYPE><CLASSIFICATION_TYPE>U</CLASSIFICATION_TYPE><NORAD_CAT_ID>42962</NORAD_CAT_ID><ELEMENT_SET_NO>999</ELEMENT_SET_NO><REV_AT_EPOCH>42468</REV_AT_EPOCH><BSTAR>.10302762E-3</BSTAR><MEAN_MOTION_DOT>.308E-5</MEAN_MOTION_DOT><MEAN_MOTION_DDOT>0</MEAN_MOTION_DDOT></tleParameters></data></segment></body></omm>
<omm id="CCSDS_OMM_VERS" version="2.0">
<header><CREATION_DATE/><ORIGINATOR/></header><body><segment><metadata><OBJECT_NAME>IRIDIUM 139</OBJECT_NAME><OBJECT_ID>2017-061J</OBJECT_ID><CENTER_NAME>EARTH</CENTER_NAME><REF_FRAME>TEME</REF_FRAME><TIME_SYSTEM>UTC</TIME_SYSTEM><MEAN_ELEMENT_THEORY>SGP4</MEAN_ELEMENT_THEORY></metadata><data><meanElements><EPOCH>2025-11-18T21:47:14.973216</EPOCH><MEAN_MOTION>14.34215889</MEAN_MOTION><ECCENTRICITY>.00018089</ECCENTRICITY><INCLINATION>86.3948</INCLINATION><RA_OF_ASC_NODE>113.2427</RA_OF_ASC_NODE><ARG_OF_PERICENTER>92.9088</ARG_OF_PERICENTER><MEAN_ANOMALY>267.2315</MEAN_ANOMALY></meanElements><tleParameters><EPHEMERIS_TYPE>0</EPHEMERIS_TYPE><CLASSIFICATION_TYPE>U</CLASSIFICATION_TYPE><NORAD_CAT_ID>42963</NORAD_CAT_ID><ELEMENT_SET_NO>999</ELEMENT_SET_NO><REV_AT_EPOCH>42470</REV_AT_EPOCH><BSTAR>.1277119E-3</BSTAR><MEAN_MOTION_DOT>.377E-5</MEAN_MOTION_DOT><MEAN_MOTION_DDOT>0</MEAN_MOTION_DDOT></tleParameters></data></segment></body></omm>
<omm id="CCSDS_OMM_VERS" version="2.0">
<header><CREATION_DATE/><ORIGINATOR/></header><body><segment><metadata><OBJECT_NAME>IRIDIUM 125</OBJECT_NAME><OBJECT_ID>2017-061K</OBJECT_ID><CENTER_NAME>EARTH</CENTER_NAME><REF_FRAME>TEME</REF_FRAME><TIME_SYSTEM>UTC</TIME_SYSTEM><MEAN_ELEMENT_THEORY>SGP4</MEAN_ELEMENT_THEORY></metadata><data><meanElements><EPOCH>2025-11-18T21:28:58.995264</EPOCH><MEAN_MOTION>14.34215649</MEAN_MOTION><ECCENTRICITY>.00016558</ECCENTRICITY><INCLINATION>86.3949</INCLINATION><RA_OF_ASC_NODE>113.3053</RA_OF_ASC_NODE><ARG_OF_PERICENTER>77.6623</ARG_OF_PERICENTER><MEAN_ANOMALY>282.4758</MEAN_ANOMALY></meanElements><tleParameters><EPHEMERIS_TYPE>0</EPHEMERIS_TYPE><CLASSIFICATION_TYPE>U</CLASSIFICATION_TYPE><NORAD_CAT_ID>42964</NORAD_CAT_ID><ELEMENT_SET_NO>999</ELEMENT_SET_NO><REV_AT_EPOCH>42471</REV_AT_EPOCH><BSTAR>.11202162E-3</BSTAR><MEAN_MOTION_DOT>.333E-5</MEAN_MOTION_DOT><MEAN_MOTION_DDOT>0</MEAN_MOTION_DDOT></tleParameters></data></segment></body></omm>
<omm id="CCSDS_OMM_VERS" version="2.0">
<header><CREATION_DATE/><ORIGINATOR/></header><body><segment><metadata><OBJECT_NAME>IRIDIUM 135</OBJECT_NAME><OBJECT_ID>2017-083A</OBJECT_ID><CENTER_NAME>EARTH</CENTER_NAME><REF_FRAME>TEME</REF_FRAME><TIME_SYSTEM>UTC</TIME_SYSTEM><MEAN_ELEMENT_THEORY>SGP4</MEAN_ELEMENT_THEORY></metadata><data><meanElements><EPOCH>2025-11-18T15:50:19.857120</EPOCH><MEAN_MOTION>14.34214198</MEAN_MOTION><ECCENTRICITY>.00021656</ECCENTRICITY><INCLINATION>86.3986</INCLINATION><RA_OF_ASC_NODE>50.0083</RA_OF_ASC_NODE><ARG_OF_PERICENTER>96.1219</ARG_OF_PERICENTER><MEAN_ANOMALY>264.0223</MEAN_ANOMALY></meanElements><tleParameters><EPHEMERIS_TYPE>0</EPHEMERIS_TYPE><CLASSIFICATION_TYPE>U</CLASSIFICATION_TYPE><NORAD_CAT_ID>43070</NORAD_CAT_ID><ELEMENT_SET_NO>999</ELEMENT_SET_NO><REV_AT_EPOCH>41397</REV_AT_EPOCH><BSTAR>.13742893E-3</BSTAR><MEAN_MOTION_DOT>.405E-5</MEAN_MOTION_DOT><MEAN_MOTION_DDOT>0</MEAN_MOTION_DDOT></tleParameters></data></segment></body></omm>
<omm id="CCSDS_OMM_VERS" version="2.0">
<header><CREATION_DATE/><ORIGINATOR/></header><body><segment><metadata><OBJECT_NAME>IRIDIUM 138</OBJECT_NAME><OBJECT_ID>2017-083B</OBJECT_ID><CENTER_NAME>EARTH</CENTER_NAME><REF_FRAME>TEME</REF_FRAME><TIME_SYSTEM>UTC</TIME_SYSTEM><MEAN_ELEMENT_THEORY>SGP4</MEAN_ELEMENT_THEORY></metadata><data><meanElements><EPOCH>2025-11-18T16:26:51.823392</EPOCH><MEAN_MOTION>14.34214362</MEAN_MOTION><ECCENTRICITY>.00021591</ECCENTRICITY><INCLINATION>86.4000</INCLINATION><RA_OF_ASC_NODE>49.6608</RA_OF_ASC_NODE><ARG_OF_PERICENTER>84.3725</ARG_OF_PERICENTER><MEAN_ANOMALY>275.7717</MEAN_ANOMALY></meanElements><tleParameters><EPHEMERIS_TYPE>0</EPHEMERIS_TYPE><CLASSIFICATION_TYPE>U</CLASSIFICATION_TYPE><NORAD_CAT_ID>43071</NORAD_CAT_ID><ELEMENT_SET_NO>999</ELEMENT_SET_NO><REV_AT_EPOCH>41396</REV_AT_EPOCH><BSTAR>.15194949E-3</BSTAR><MEAN_MOTION_DOT>.445E-5</MEAN_MOTION_DOT><MEAN_MOTION_DDOT>0</MEAN_MOTION_DDOT></tleParameters></data></segment></body></omm>

</ndm>
